STARLINK-3897           
1 52537U 22051E   26143.73430404  .00000464  00000+0  47219-4 0  9993
2 52537  53.2168 152.0380 0001134  71.0202 289.0913 15.08837283222776
STARLINK-3933           
1 52538U 22051F   26143.74535823  .00001405  00000+0  10632-3 0  9990
2 52538  53.2179 152.1820 0001161  71.6237 288.4881 15.08846655222773
STARLINK-3757           
1 52539U 22051G   26143.81528535 -.00000033  00000+0  16029-4 0  9995
2 52539  53.2166 151.8674 0001129  78.3550 281.7569 15.08836485222789
STARLINK-3940           
1 52540U 22051H   26143.73801170  .00000539  00000+0  51957-4 0  9996
2 52540  53.2155 152.2547 0000976  71.9583 288.1515 15.08838132222779
STARLINK-3845           
1 52541U 22051J   26143.30516225  .00000846  00000+0  71228-4 0  9998
2 52541  53.2168 159.1584 0001131  83.6678 276.4443 15.08844463222639
STARLINK-3937           
1 52542U 22051K   26143.73064698  .00000259  00000+0  34341-4 0  9991
2 52542  53.2154 152.2487 0001065  71.7443 288.3665 15.08836155222777
STARLINK-3926           
1 52543U 22051L   26143.34424897  .00000409  00000+0  43767-4 0  9999
2 52543  53.2164 153.9810 0001092  74.5071 285.6042 15.08836572222711
STARLINK-3944           
1 52544U 22051M   26143.76146720  .00000668  00000+0  60020-4 0  9990
2 52544  53.2163 157.1208 0001225  81.5698 278.5433 15.08841913222708
STARLINK-3948           
1 52546U 22051P   26143.30469315  .00000038  00000+0  20454-4 0  9998
2 52546  53.2172 153.9284 0001193  77.5734 282.5392 15.08840844222710
STARLINK-3931           
1 52548U 22051R   26143.44360459  .00000085  00000+0  23439-4 0  9992
2 52548  53.2162 153.5390 0001076  62.3643 297.7458 15.08840604222733
STARLINK-3935           
1 52549U 22051S   26143.72697019 -.00000487  00000+0 -12539-4 0  9996
2 52549  53.2145 152.2640 0001039  55.7615 304.3475 15.08838599222771
STARLINK-3965           
1 52550U 22051T   26143.71592742 -.00001118  00000+0 -52182-4 0  9994
2 52550  53.2157 152.3140 0001266  78.7609 281.3525 15.08840894222773
STARLINK-3969           
1 52551U 22051U   26143.72328579 -.00000084  00000+0  12800-4 0  9994
2 52551  53.2156 152.2828 0001018  75.6131 284.4974 15.08839545222779
STARLINK-3966           
1 52552U 22051V   26143.32218899 -.00000780  00000+0 -30951-4 0  9995
2 52552  53.2168 154.2358 0001159  71.5325 288.5793 15.08832495222714
STARLINK-3858           
1 52553U 22051W   26143.83336806  .01514077  00000+0  20213-1 0  9996
2 52553  53.2200 145.9444 0001629 103.5631 282.2297 15.54804864  5857
STARLINK-3770           
1 52554U 22051X   26143.75779904  .00000956  00000+0  78139-4 0  9996
2 52554  53.2169 157.1246 0000709 101.0545 259.0527 15.08836547222707
STARLINK-3943           
1 52557U 22051AA  26143.30376875  .00000647  00000+0  58726-4 0  9997
2 52557  53.2167 154.1632 0001054  75.3821 284.7288 15.08843956222710
STARLINK-3953           
1 52559U 22051AC  26143.71319164  .00000272  00000+0  35143-4 0  9994
2 52559  53.2161 142.5100 0001215  85.5173 274.5958 15.08845815222907
STARLINK-3956           
1 52560U 22051AD  26143.69844723 -.00000360  00000+0 -45674-5 0  9998
2 52560  53.2160 142.3941 0001078  73.5997 286.5113 15.08838972222909
STARLINK-3955           
1 52561U 22051AE  26143.74674772  .00000033  00000+0  20165-4 0  9992
2 52561  53.2148 157.1778 0001062  74.2780 285.8329 15.08836884222708
STARLINK-3957           
1 52562U 22051AF  26143.69108707 -.00000169  00000+0  74403-5 0  9993
2 52562  53.2170 142.4271 0001267  76.5950 283.5183 15.08836845222902
STARLINK-3942           
1 52563U 22051AG  26143.35298691  .00000805  00000+0  68652-4 0  9993
2 52563  53.2160 158.9427 0001097  72.5685 287.5427 15.08838213222646
STARLINK-3959           
1 52564U 22051AH  26143.74403747 -.00001092  00000+0 -50582-4 0  9991
2 52564  53.2128 157.1986 0000893  64.8101 295.2984 15.08824873222700
STARLINK-3911           
1 52565U 22051AJ  26143.69477034  .00001104  00000+0  87438-4 0  9998
2 52565  53.2164 142.4111 0001102  84.0128 276.0989 15.08840061222906
STARLINK-3938           
1 52566U 22051AK  26143.45602387  .00000725  00000+0  63598-4 0  9993
2 52566  53.2162 158.4816 0001099  73.5142 286.5971 15.08845864222664
STARLINK-3929           
1 52567U 22051AL  26143.68740609 -.00000127  00000+0  10098-4 0  9993
2 52567  53.2150 142.4422 0001149  69.9267 290.1848 15.08837387222903
STARLINK-3930           
1 52568U 22051AM  26143.27891387 -.00005312  00000+0 -31569-3 0  9996
2 52568  53.2164 144.2732 0001035  67.9629 292.1473 15.08865375222844
STARLINK-3927           
1 52569U 22051AN  26143.68372492 -.00000479  00000+0 -12009-4 0  9991
2 52569  53.2160 142.4601 0001119  73.5205 286.5910 15.08840181222900
STARLINK-3901           
1 52574U 22051AQ  26143.28260623 -.00000207  00000+0  50892-5 0  9996
2 52574  53.2168 144.2588 0001165  78.3371 281.7752 15.08839640222848
STARLINK-3932           
1 52576U 22051AS  26143.72883036 -.00010452  00000+0 -63872-3 0  9990
2 52576  53.2176 142.2546 0000789  67.4255 292.6820 15.08888356222915
STARLINK-3836           
1 52577U 22051AT  26143.31619731  .00000853  00000+0  71694-4 0  9999
2 52577  53.2163 159.1088 0001400  71.2683 288.8461 15.08848345222641
STARLINK-3833           
1 52578U 22051AU  26143.45234664 -.00000502  00000+0 -13474-4 0  9998
2 52578  53.2178 158.4977 0001231  75.1562 284.9566 15.08842503222663
STARLINK-3893           
1 52579U 22051AV  26143.77250495 -.00000250  00000+0  24007-5 0  9998
2 52579  53.2171 157.0622 0001089  70.0869 290.0240 15.08840209222718
STARLINK-3919           
1 52580U 22051AW  26143.51218353  .00000112  00000+0  25090-4 0  9997
2 52580  53.2167 158.2376 0001085  67.9709 292.1398 15.08839175222670
STARLINK-3915           
1 52581U 22051AX  26143.72421475  .00001278  00000+0  98345-4 0  9999
2 52581  53.2162 142.2788 0001225  84.8265 275.2866 15.08841178222912
STARLINK-3895           
1 52583U 22051AZ  26143.32308823  .00000743  00000+0  64746-4 0  9992
2 52583  53.2168 144.0769 0001233  68.3829 291.7294 15.08839746222850
STARLINK-3922           
1 52584U 22051BA  26143.72788623  .00000589  00000+0  55061-4 0  9995
2 52584  53.2177 142.2585 0001207  60.2855 299.8257 15.08842380222911
STARLINK-3906           
1 52585U 22051BB  26143.70948324  .00000416  00000+0  44251-4 0  9998
2 52585  53.2164 142.3061 0001281  82.5057 277.6080 15.08838749222913
STARLINK-3910           
1 52586U 22051BC  26143.31940758  .00000649  00000+0  58873-4 0  9992
2 52586  53.2167 144.0945 0001247  69.3322 290.7803 15.08838127222859
STARLINK-3867           
1 52587U 22051BD  26143.69571209  .00000830  00000+0  70223-4 0  9990
2 52587  53.2159 142.2624 0001106  64.6969 295.4138 15.08847470222915
STARLINK-3917           
1 52588U 22051BE  26143.70580788  .00000315  00000+0  37859-4 0  9991
2 52588  53.2157 142.3616 0001067  71.5109 288.5999 15.08837068222915
STARLINK-4019           
1 52598U 22052A   26143.81022914  .00002290  00000+0  16201-3 0  9998
2 52598  53.2149 306.8926 0001213  93.2725 266.8406 15.08822993222920
STARLINK-4024           
1 52599U 22052B   26143.86407006  .00009812  00000+0  63462-3 0  9991
2 52599  53.2167 301.7548 0001633 111.5179 248.5987 15.08786386223004
STARLINK-4026           
1 52600U 22052C   26143.84198035 -.00001455  00000+0 -73341-4 0  9996
2 52600  53.2163 301.7467 0001302  88.9944 271.1197 15.08830628223007
STARLINK-4027           
1 52601U 22052D   26143.84932258  .00000396  00000+0  42947-4 0  9999
2 52601  53.2173 301.7154 0001303  86.6024 273.5117 15.08836088223001
STARLINK-4012           
1 52602U 22052E   26143.84564441 -.00000252  00000+0  22699-5 0  9990
2 52602  53.2162 301.7338 0001252  91.7261 268.3874 15.08853582223007
STARLINK-4016           
1 52603U 22052F   26143.83188672  .00000756  00000+0  65580-4 0  9991
2 52603  53.2168 301.8050 0001376  86.7230 273.3919 15.08839198223006
STARLINK-4013           
1 52604U 22052G   26143.70580549  .00000066  00000+0  22207-4 0  9990
2 52604  53.2169 302.3587 0001187  91.5388 268.5740 15.08841505222188
STARLINK-4000           
1 52605U 22052H   26143.71915703  .00000033  00000+0  20187-4 0  9995
2 52605  53.2175 307.0777 0001196  90.7222 269.3907 15.08837556222115
STARLINK-3928           
1 52606U 22052J   26143.70212970 -.00000285  00000+0  19894-6 0  9996
2 52606  53.2169 302.3780 0001173  89.4462 270.6664 15.08836726222187
STARLINK-3947           
1 52607U 22052K   26143.86638366  .00000137  00000+0  26671-4 0  9999
2 52607  53.2164 306.6485 0001160  88.5867 271.5258 15.08840795222121
STARLINK-3979           
1 52608U 22052L   26143.76100875  .00000364  00000+0  40932-4 0  9996
2 52608  53.2164 302.1128 0001239  87.3151 272.7983 15.08837265222190
STARLINK-3997           
1 52609U 22052M   26143.74996169  .00000798  00000+0  68213-4 0  9997
2 52609  53.2165 302.1134 0001358  85.7206 274.3941 15.08837386222190
STARLINK-3998           
1 52610U 22052N   26143.73662536  .00000076  00000+0  22886-4 0  9991
2 52610  53.2163 307.2210 0001364 107.3825 252.7316 15.08836373222119
STARLINK-3980           
1 52611U 22052P   26143.72926509 -.00000124  00000+0  10279-4 0  9992
2 52611  53.2173 307.2534 0001181  85.2242 274.8885 15.08837790222114
STARLINK-4002           
1 52612U 22052Q   26143.75732836  .00000235  00000+0  32829-4 0  9991
2 52612  53.2158 302.1291 0001234  87.7155 272.3978 15.08836992222198
STARLINK-3982           
1 52614U 22052S   26143.70057431  .00044029  00000+0  71244-3 0  9991
2 52614  53.2078 231.2756 0001424 186.3800 173.7193 15.52409749223181
STARLINK-4011           
1 52615U 22052T   26143.85806288  .00000519  00000+0  50662-4 0  9998
2 52615  53.2170 306.6765 0001165  93.5532 266.5594 15.08842099222124
STARLINK-3996           
1 52617U 22052V   26143.79505042  .00000195  00000+0  30326-4 0  9992
2 52617  53.2158 291.9602 0001255  88.5951 271.5185 15.08835511222322
